#aV2023  8  9  0  0  0.00000000     288 DD+AD WGS84 FIT  NGA
## 2274 259200.00000000   300.00000000 60165 0.0000000000000
+   31     1  2  3  4  5  6  7  8  9 10 11 12 13 14 15 16 17
+         18 19 20 21 23 24 25 26 27 28 29 30 31 32  0  0  0
+          0  0  0  0  0  0  0  0  0  0  0  0  0  0  0  0  0
+          0  0  0  0  0  0  0  0  0  0  0  0  0  0  0  0  0
+          0  0  0  0  0  0  0  0  0  0  0  0  0  0  0  0  0
++         2  2  2  2  2  2  2  2  2  2  2  2  2  2  2  2  2
++         2  2  2  2  2  2  2  2  2  2  2  2  2  2  0  0  0
++         0  0  0  0  0  0  0  0  0  0  0  0  0  0  0  0  0
++         0  0  0  0  0  0  0  0  0  0  0  0  0  0  0  0  0
++         0  0  0  0  0  0  0  0  0  0  0  0  0  0  0  0  0
%c cc cc ccc ccc cccc cccc cccc cccc ccccc ccccc ccccc ccccc
%c cc cc ccc ccc cccc cccc cccc cccc ccccc ccccc ccccc ccccc
%f  0.0000000  0.000000000  0.00000000000  0.000000000000000
%f  0.0000000  0.000000000  0.00000000000  0.000000000000000
%i    0    0    0    0      0      0      0      0         0
%i    0    0    0    0      0      0      0      0         0
/*      NGA, ST. LOUIS,MO.                                  
/*   EPHEMERIS COMPUTED FROM 2 DAYS OF DATA                 
/*   EPOCHA v8 SMOOTHER                                     
/*   G2139 IERS2010 SATIGS SATAPC                           
*  2023  8  9 10 55  0.00000000
P  1  15500.230835   2431.517530  21149.815922    169.280113                    
V  1   8516.161423  26165.982662  -8776.150622     -0.015062                    
P  2  17792.911210   8204.916558  18508.105848   -567.363451                    
V  2   8243.474279  20869.462127 -17503.251642      0.040888                    
P  3  20192.206906  -8659.002125  14695.963607   -195.366558                    
V  3 -10848.762953  15603.987167  23976.347187      0.178122                    
P  4  25325.189630   -413.138855  -8182.392402    120.354984                    
V  4   9630.707047   4552.502351  29424.176556      0.113187                    
P  5 -13921.877644  -6585.080567 -21831.790177   -138.128497                    
V  5  16353.384433 -21804.172654  -3780.845968     -0.014741                    
P  6  -4662.319374 -25384.768079   6122.822213    568.580242                    
V  6   4344.540260   6627.435836  31176.499976     -0.048909                    
P  7   9266.214281 -14944.341716 -19290.564303    100.833802                    
V  7  10310.098061  23601.054448 -13491.150979     -0.108583                    
P  8  25867.195324   6146.158671  -3255.096954   -136.309623                    
V  8  -4326.871423   1926.205677 -31077.572520     -0.018947                    
P  9  19850.341408  -8170.554238 -15746.772816    -91.135346                    
V  9  19314.419335   4980.311699  21827.761892      0.096996                    
P 10  -8433.476127  22237.865501  11660.560329    -48.563340                    
V 10 -10978.324583   9870.923423 -27488.000127     -0.015874                    
P 11 -12605.979177 -21963.050451  -8077.075607   -312.935028                    
V 11   -676.815582 -10518.876370  29574.393393     -0.171317                    
P 12 -19959.108522   3910.763992  16764.818528   -410.806389                    
V 12  13863.382778 -16974.658562  20209.021001     -0.045286                    
P 13 -20986.367160 -13609.755023  -9432.359850    557.902614                    
V 13  11700.583760   1631.934367 -28756.205126      0.047423                    
P 14  11605.362016 -22215.487359   8554.489868    148.611044                    
V 14   9570.715959  -6069.178517 -28976.550658      0.117302                    
P 15 -26386.082543  -3128.868208  -3061.901659     65.966715                    
V 15   3419.377053  -3288.659686 -30657.308969      0.036011                    
P 16  10041.678813  11545.287231 -22001.362300   -470.503123                    
V 16 -19491.676552  18993.690217   1529.233278      0.048628                    
P 17   3889.716664 -14632.955223  22254.505277    722.443243                    
V 17  26424.208121   6366.499988   -336.036428      0.005657                    
P 18  -7473.904881  17290.905205 -18653.022993   -376.253028                    
V 18  -8968.859748 -21993.890293 -16960.199984     -0.135497                    
P 19  -5340.588828 -16006.976963  20383.651306    355.279255                    
V 19  25414.391359   6560.851282  11368.728185      0.051398                    
P 20  -6867.202999 -16340.338518 -19799.910458    418.171700                    
V 20  13741.620003 -21160.612493  12488.320914     -0.020302                    
P 21  18177.706081  11395.795843  16737.074218    151.004208                    
V 21   7381.329148  18529.736703 -20439.576647     -0.005944                    
P 23 -16711.030436  20519.649153   -516.552063     52.955885                    
V 23  -1561.741289  -2083.450139 -32164.598869      0.045891                    
P 24 -17943.754889  -6359.062568  18314.262399   -284.342080                    
V 24  -8622.447217 -22425.719979 -15496.589024     -0.116666                    
P 25 -19573.719896  16250.205079   6826.231740    461.143115                    
V 25   3312.206094  -9117.413500  30098.405227      0.021959                    
P 26   1787.032706  19751.683932 -17622.835413    233.606004                    
V 26 -14978.904295  16762.267019  17731.741099     -0.014299                    
P 27  19090.748387  12944.406061 -13776.478322    -18.849216                    
V 27 -16944.659533  -1202.731406 -24671.516070     -0.068550                    
P 28   4165.017426  25023.117686   7855.475680     77.641650                    
V 28  -6164.736878  -8299.728231  29626.172431     -0.030521                    
P 29 -20847.052693   5553.994879 -15611.333868   -607.423742                    
V 29 -18648.803431  -6415.163525  22591.560125     -0.007783                    
P 30   2507.474041 -22565.047017 -13446.342670   -497.858960                    
V 30   8692.849137  15421.206939 -24302.046022      0.030078                    
P 31  10406.678483  24013.169457  -3057.734065   -221.543426                    
V 31  -1983.417590   4593.198806  31566.164615     -0.006614                    
P 32   1067.997842  15565.519234  21696.219466   -537.337870                    
V 32 -26768.856453  -4212.610382   4180.887707     -0.070134                    
EOF
